0 FENGYUN 1C DEB
1 32460U 99025DBY 13275.51953069  .00000747  00000-0  64304-3 0  3404
2 32460 098.0043 283.8074 0202684 208.5573 310.4532 13.80196091316876
0 FENGYUN 1C DEB
1 32460U 99025DBY 13280.52032394  .00000579  00000-0  50400-3 0  3416
2 32460 098.0047 288.0464 0202991 194.7923 317.9568 13.80200885317561
0 FENGYUN 1C DEB
1 32460U 99025DBY 13285.52329406  .00000675  00000-0  58175-3 0  3429
2 32460 098.0038 292.2877 0203289 181.0402 336.3780 13.80208985318255
0 FENGYUN 1C DEB
1 32460U 99025DBY 13288.25906314  .00000948  00000-0  80606-3 0  3439
2 32460 098.0042 294.6072 0203390 173.5288 249.7376 13.80213806318632
